312P/NEAT,e,19.7664,144.6698,207.5204,3.467906,0.1526170,0.42810787,341.6917,05/28.0/2020,2000,g 16.0,4.0
# From MPEC 2019-TG9
313P/Gibbs,e,10.9833,105.9718,254.6103,3.161060,0.1753699,0.23478357,7.5094,05/28.0/2020,2000,g 15.0,4.0
# From MPC105243
314P/Montani,e,3.9790,267.6206,214.2337,7.276421,0.0502143,0.41631358,66.6223,05/28.0/2020,2000,g  9.5,4.0
# From MPC115888
315P/LONEOS,e,17.8341,69.1712,65.6287,4.941775,0.0897180,0.52259750,114.1132,05/28.0/2020,2000,g 11.0,4.0
# From MPC 92279
316P/LONEOS-Christensen,e,9.8814,246.7593,193.8556,4.347523,0.1087280,0.16056562,182.0764,05/28.0/2020,2000,g 13.5,4.0
# From MPEC 2020-C98
317P/WISE,e,11.9509,275.5199,334.9051,2.965225,0.1930267,0.57042399,336.6088,05/28.0/2020,2000,g 17.5,4.0
# From MPC102103
318P/McNaught-Hartley,e,17.8722,35.6518,313.1033,7.496376,0.0480205,0.67486137,80.6004,05/28.0/2020,2000,g  8.5,6.0
# From MPC 97499
319P/Catalina-McNaught,e,15.0955,111.3803,203.6106,3.569104,0.1461724,0.66646881,261.7086,05/28.0/2020,2000,g 15.0,4.0
# From MPC 96281
320P/McNaught,e,4.9089,295.9309,0.7678,3.094140,0.1810899,0.68572019,317.5991,05/28.0/2020,2000,g 20.5,4.0
# From MPC105243
321P/SOHO,e,20.0479,165.0437,172.7250,2.422992,0.2613221,0.98106558,0.0000,01/17.2519/2020,2000,g 20.0,4.0
# From MPC102103
322P/SOHO,e,11.4596,351.4686,56.9374,2.508455,0.2480817,0.97976520,0.0000,08/31.5000/2019,2000,g 19.0,4.0
# From MPEC 2016-Y36
323P/SOHO,e,5.3371,324.3746,353.0483,2.582395,0.2375036,0.98483298,0.0000,01/17.7566/2021,2000,g 20.0,4.0
# From MPC108598
324P/La Sagra,e,21.4227,270.6441,58.0537,3.095444,0.1809755,0.15452960,297.6466,05/28.0/2020,2000,g 13.0,4.0
# From MPC114609
325P/Yang-Gao,e,16.7007,257.5794,343.6823,3.524158,0.1489776,0.59378473,260.1876,05/28.0/2020,2000,g 14.0,4.0
# From MPC103849
326P/Hill,e,2.4707,99.8146,278.5877,4.064804,0.1202665,0.31718210,202.1343,05/28.0/2020,2000,g 13.5,4.0
# From MPC 97499
327P/Van Ness,e,36.2403,173.9698,185.0177,3.563160,0.1465383,0.56268745,238.7126,05/28.0/2020,2000,g 16.0,4.0
# From MPC109148
328P/LONEOS-Tucker,e,17.6667,341.6172,30.4851,4.196439,0.1146523,0.55148408,185.3913,05/28.0/2020,2000,g 14.5,4.0
# From MPC101101
329P/LINEAR-Catalina,e,21.6633,87.6860,343.5631,5.193478,0.0832754,0.67679235,136.6311,05/28.0/2020,2000,g 13.5,4.0
# From MPC105243
330P/Catalina,e,15.6941,293.0960,189.0165,6.633645,0.0576867,0.54889846,78.9760,05/28.0/2020,2000,g 12.0,4.0
# From MPC110497
331P/Gibbs,e,9.7403,216.7782,183.7128,3.002998,0.1893963,0.04054938,336.4260,05/28.0/2020,2000,g 12.0,4.0
# From MPEC 2016-K18
332P/Ikeya-Murakami,e,9.3810,3.7936,152.3792,3.087873,0.1816414,0.48944628,278.7193,05/28.0/2020,2000,g 18.0,4.0
# From MPEC 2016-EI8
332P-B/Ikeya-Murakami,e,9.3805,3.8028,152.3711,3.082329,0.1821317,0.48970701,359.9699,03/17.0/2016,2000,g 19.0,4.0
# From MPEC 2016-K18
332P-C/Ikeya-Murakami,e,9.3800,3.7940,152.3705,3.087839,0.1816444,0.48945168,278.7321,05/28.0/2020,2000,g 16.5,4.0
# From MPEC 2016-ED0
332P-D/Ikeya-Murakami,e,9.3761,3.7923,152.4393,3.081138,0.1822373,0.48977814,359.9486,03/17.0/2016,2000,g 19.0,4.0
# From MPEC 2016-ED0
332P-E/Ikeya-Murakami,e,9.3774,3.8228,152.2825,3.079877,0.1823493,0.48922008,359.9889,03/17.0/2016,2000,g 21.0,4.0
# From MPEC 2016-ED0
332P-F/Ikeya-Murakami,e,9.5293,3.4757,152.8203,3.163214,0.1751908,0.49918860,359.8501,03/17.0/2016,2000,g 21.0,4.0
# From MPEC 2016-ED0
332P-G/Ikeya-Murakami,e,9.2523,3.6955,154.4000,3.050519,0.1849880,0.49200362,359.9006,03/19.0/2016,2000,g 19.0,4.0
# From MPC100285
332P-H/Ikeya-Murakami,e,9.3806,3.7937,152.3712,3.088023,0.1816282,0.48948685,278.6743,05/28.0/2020,2000,g 19.0,4.0
# From MPEC 2016-ED0
332P-I/Ikeya-Murakami,e,9.3791,3.8048,152.3297,3.081767,0.1821815,0.48955490,359.9360,03/17.0/2016,2000,g 20.5,2.0
# From MPEC 2016-EI8
332P-J/Ikeya-Murakami,e,9.4296,3.6729,152.7712,3.115165,0.1792596,0.49429435,359.8613,03/17.0/2016,2000,g 20.5,2.0
# From MPC104796
333P/LINEAR,e,131.9799,115.6256,26.0559,4.219799,0.1137016,0.73634206,172.5359,05/28.0/2020,2000,g 15.0,4.0
# From MPC111774
334P/NEAT,e,20.5104,90.7511,89.7519,6.837241,0.0551293,0.35482721,59.7256,05/28.0/2020,2000,g 10.5,4.0
# From MPC100285
335P/Gibbs,e,7.2909,330.8422,162.2388,3.578960,0.1455689,0.54510491,242.5848,05/28.0/2020,2000,g 17.0,4.0
# From MPC105244
336P/McNaught,e,17.8340,298.2260,308.7128,5.029624,0.0873777,0.44575721,105.7053,05/28.0/2020,2000,g 13.5,4.0
# From MPC112394
337P/WISE,e,15.3741,106.0721,160.9745,3.287807,0.1653273,0.49694870,233.7121,05/28.0/2020,2000,g 17.0,4.0
# From MPC104796
338P/McNaught,e,25.3672,9.7867,4.3995,3.898746,0.1280315,0.41087755,164.2541,05/28.0/2020,2000,g 12.0,4.0
# From MPC101101
339P/Gibbs,e,5.7364,172.7523,27.5238,3.695254,0.1387515,0.63600409,194.8967,05/28.0/2020,2000,g 17.0,4.0
# From MPC102957
340P/Boattini,e,2.0798,291.7289,35.7769,4.251707,0.1124240,0.28052585,144.5314,05/28.0/2020,2000,g 13.0,4.0
# From MPC109148
341P/Gibbs,e,3.7943,30.0038,312.0996,4.294933,0.1107311,0.41497006,161.8002,05/28.0/2020,2000,g 12.5,4.0
# From MPC101101
342P/SOHO,e,12.0205,34.4794,66.7554,3.043613,0.1856179,0.98339931,0.0000,10/18.9929/2021,2000,g  9.0,4.0
# From MPC109148
343P/NEAT-LONEOS,e,5.5829,257.2431,137.3783,5.462827,0.0771930,0.58361109,93.8943,05/28.0/2020,2000,g 14.0,4.0
# From MPC109148
344P/Read,e,3.4901,273.1940,140.4243,4.868488,0.0917514,0.42134632,119.6993,05/28.0/2020,2000,g 13.0,4.0
# From MPC109148
345P/LINEAR,e,2.7263,154.4977,196.3436,4.040818,0.1213389,0.22044066,171.3172,05/28.0/2020,2000,g 12.0,4.0
# From MPC110086
346P/Catalina,e,22.1852,102.4693,336.0310,4.476991,0.1040458,0.50231832,124.7364,05/28.0/2020,2000,g 14.0,4.0
# From MPC108599
347P/PANSTARRS,e,11.7476,261.0483,98.2870,3.607617,0.1438379,0.38522318,194.7938,05/28.0/2020,2000,g 15.0,4.0
# From MPC104796
348P/PANSTARRS,e,17.7308,312.9384,135.2875,3.156210,0.1757743,0.30620449,250.1771,05/28.0/2020,2000,g 14.0,4.0
# From MPC112394
349P/Lemmon,e,5.4912,331.7513,256.0421,3.571597,0.1460194,0.29956889,146.8494,05/28.0/2020,2000,g 14.0,4.0
# From MPC111775
350P/McNaught,e,7.3567,65.4055,141.1836,4.098929,0.1187678,0.09065008,105.5236,05/28.0/2020,2000,g 14.0,4.0
# From MPC105244
351P/Wiegert-PANSTARRS,e,12.7910,283.4490,352.6082,4.436628,0.1054689,0.29620210,174.2728,05/28.0/2020,2000,g 12.5,4.0
# From MPC110086
352P/Skiff,e,21.0095,28.1119,309.1118,6.633871,0.0576838,0.61805223,61.7762,05/28.0/2020,2000,g 11.5,4.0
# From MPEC 2020-AA5
353P/McNaught,e,28.4247,121.5626,230.3713,4.171549,0.1156799,0.46976319,102.8129,05/28.0/2020,2000,g 14.5,4.0
# From MPC105545
354P/LINEAR,e,5.2554,320.1295,133.0741,2.290025,0.2844093,0.12564927,8.6668,05/28.0/2020,2000,g 15.5,4.0
# From MPEC 2020-AA5
355P/LINEAR-NEAT,e,11.0345,51.4453,336.2523,3.473071,0.1522767,0.50666231,145.9369,05/28.0/2020,2000,g 15.5,2.0
# From MPC109148
356P/WISE,e,9.6339,160.7889,226.0426,4.161404,0.1161032,0.35446375,103.6959,05/28.0/2020,2000,g 14.0,4.0
# From MPC114609
357P/Hill,e,6.3092,44.5883,1.4385,4.462692,0.1045463,0.43435402,76.3459,05/28.0/2020,2000,g 15.5,4.0
# From MPEC 2020-HN5
358P/PANSTARRS,e,11.0570,85.7179,299.7486,3.148951,0.1763824,0.23794915,137.1673,05/28.0/2020,2000,g 18.0,4.0
# From MPC110086
359P/LONEOS,e,10.2643,149.7607,200.1163,4.639394,0.0986307,0.32378543,99.7339,05/28.0/2020,2000,g 13.5,4.0
# From MPC108599
360P/WISE,e,24.0920,2.1970,354.1099,3.703274,0.1383010,0.49845072,140.1353,05/28.0/2020,2000,g 19.5,6.0
# From MPC114609
361P/Spacewatch,e,13.8852,203.2578,219.1271,4.941554,0.0897240,0.43772849,62.4343,05/28.0/2020,2000,g 12.0,4.0
# From MPEC 2017-V13
362P/,e,15.5604,192.5941,53.6658,3.967107,0.1247364,0.28004719,171.2550,05/28.0/2020,2000,g 12.9,2.0
# From MPC114609
363P/Lemmon,e,4.4788,156.3012,330.6384,3.466209,0.1527291,0.55797719,120.3857,05/28.0/2020,2000,g 17.5,4.0
# From MPC114609
364P/PANSTARRS,e,12.1483,46.2145,211.9742,2.878662,0.2017986,0.72254476,141.9878,05/28.0/2020,2000,g 17.0,2.0
# From MPC111775
365P/PANSTARRS,e,9.8380,87.4206,66.2235,3.180259,0.1737842,0.57491250,145.4337,05/28.0/2020,2000,g 17.0,4.0
# From MPC114610
366P/Spacewatch,e,8.8596,70.7527,153.1718,3.495525,0.1508118,0.34859445,102.0671,05/28.0/2020,2000,g 15.0,4.0
# From MPC112395
367P/Catalina,e,8.4638,58.7144,172.9243,3.505018,0.1501996,0.28064617,106.1248,05/28.0/2020,2000,g 17.5,2.0
# From MPC114610
368P/NEAT,e,15.4839,257.9725,118.7768,5.526457,0.0758637,0.62606480,47.1640,05/28.0/2020,2000,g 14.0,4.0
# From MPC114610
369P/Hill,e,10.3094,47.3083,13.2255,4.386767,0.1072722,0.55411431,63.3946,05/28.0/2020,2000,g 15.0,4.0
# From MPC114610
370P/NEAT,e,19.3984,55.1461,356.7114,6.437876,0.0603379,0.61429024,43.3622,05/28.0/2020,2000,g 13.0,4.0
# From MPC114610
371P/LINEAR-Skiff,e,17.3780,67.3276,308.4520,4.181502,0.1152672,0.47627897,69.3193,05/28.0/2020,2000,g 16.0,4.0
# From MPEC 2019-TG9
372P/McNaught,e,9.5096,325.8222,27.0990,4.501815,0.1031864,0.15246733,60.4176,05/28.0/2020,2000,g 13.5,4.0
# From MPC114610
373P/Rinner,e,13.7580,231.9522,221.1672,3.805664,0.1327573,0.39219831,55.0973,05/28.0/2020,2000,g 14.5,4.0
# From MPC114610
374P/Larson,e,10.7594,7.9177,51.5507,4.975808,0.0887991,0.46226558,44.6929,05/28.0/2020,2000,g 14.0,4.0
# From MPC114610
375P/Hill,e,17.3622,359.9508,119.4705,5.560416,0.0751697,0.65894093,39.3618,05/28.0/2020,2000,g 16.0,4.0
# From MPEC 2020-HN5
376P/LONEOS,e,1.1934,314.8369,285.3657,5.874390,0.0692245,0.51832051,16.7541,05/28.0/2020,2000,g 12.5,4.0
# From MPC115888
377P/Scotti,e,9.0219,226.0595,354.9585,6.714055,0.0566535,0.25280459,357.4968,05/28.0/2020,2000,g  9.5,4.0
# From MPEC 2019-TG9
378P/McNaught,e,19.1083,94.5165,194.1518,6.365567,0.0613689,0.46893243,351.0117,05/28.0/2020,2000,g 12.0,4.0
# From MPC115889
379P/Spacewatch,e,12.3857,183.9578,31.2651,3.528901,0.1486774,0.33891222,44.6586,05/28.0/2020,2000,g 15.0,4.0
# From MPEC 2020-HN5
380P/PANSTARRS,e,8.2488,133.0031,90.1062,4.545701,0.1016957,0.32960812,36.2069,05/28.0/2020,2000,g 12.5,4.0
# From MPEC 2019-TG9
